[{"OBJECT_NAME":"HAIYANG-2B","OBJECT_ID":"2018-081A","EPOCH":"2026-03-10T00:03:41.001696","MEAN_MOTION":13.79306715,"ECCENTRICITY":0.0001262,"INCLINATION":99.3339,"RA_OF_ASC_NODE":79.2399,"ARG_OF_PERICENTER":141.6934,"MEAN_ANOMALY":218.4307,"EPHEMERIS_TYPE":0,"CLASSIFICATION_TYPE":"U","NORAD_CAT_ID":43655,"ELEMENT_SET_NO":999,"REV_AT_EPOCH":37125,"BSTAR":-0.00018769625,"MEAN_MOTION_DOT":-2.37e-6,"MEAN_MOTION_DDOT":0},{"OBJECT_NAME":"SL-8 R\/B","OBJECT_ID":"1980-039B","EPOCH":"2026-03-09T22:11:15.114336","MEAN_MOTION":13.76576676,"ECCENTRICITY":0.00200785,"INCLINATION":82.9388,"RA_OF_ASC_NODE":244.5875,"ARG_OF_PERICENTER":329.2925,"MEAN_ANOMALY":30.7056,"EPHEMERIS_TYPE":0,"CLASSIFICATION_TYPE":"U","NORAD_CAT_ID":11804,"ELEMENT_SET_NO":999,"REV_AT_EPOCH":29960,"BSTAR":-2.4337823e-5,"MEAN_MOTION_DOT":-9.0e-8,"MEAN_MOTION_DDOT":0}]
